[{"OBJECT_NAME":"ONEWEB-0112","OBJECT_ID":"2021-025K","EPOCH":"2022-08-19T02:20:24.897696","MEAN_MOTION":13.13463614,"ECCENTRICITY":0.0001623,"INCLINATION":87.9044,"RA_OF_ASC_NODE":237.8896,"ARG_OF_PERICENTER":57.3437,"MEAN_ANOMALY":302.7848,"EPHEMERIS_TYPE":0,"CLASSIFICATION_TYPE":"U","NORAD_CAT_ID":48051,"ELEMENT_SET_NO":999,"REV_AT_EPOCH":7007,"BSTAR":-0.0013667,"MEAN_MOTION_DOT":-4.86e-6,"MEAN_MOTION_DDOT":0},{"OBJECT_NAME":"ONEWEB-0156","OBJECT_ID":"2021-025L","EPOCH":"2022-08-18T11:55:44.750208","MEAN_MOTION":13.13471098,"ECCENTRICITY":0.0001957,"INCLINATION":87.8994,"RA_OF_ASC_NODE":238.0814,"ARG_OF_PERICENTER":90.4002,"MEAN_ANOMALY":269.7351,"EPHEMERIS_TYPE":0,"CLASSIFICATION_TYPE":"U","NORAD_CAT_ID":48052,"ELEMENT_SET_NO":999,"REV_AT_EPOCH":6997,"BSTAR":-0.0003221,"MEAN_MOTION_DOT":-1.05e-6,"MEAN_MOTION_DDOT":0},{"OBJECT_NAME":"ONEWEB-0161","OBJECT_ID":"2021-025M","EPOCH":"2022-08-18T11:17:01.443840","MEAN_MOTION":13.13471024,"ECCENTRICITY":0.0001987,"INCLINATION":87.9036,"RA_OF_ASC_NODE":238.0515,"ARG_OF_PERICENTER":83.4251,"MEAN_ANOMALY":276.7105,"EPHEMERIS_TYPE":0,"CLASSIFICATION_TYPE":"U","NORAD_CAT_ID":48053,"ELEMENT_SET_NO":999,"REV_AT_EPOCH":6989,"BSTAR":0.00082588,"MEAN_MOTION_DOT":3.14e-6,"MEAN_MOTION_DDOT":0},{"OBJECT_NAME":"ONEWEB-0158","OBJECT_ID":"2021-025N","EPOCH":"2022-08-18T10:25:24.752064","MEAN_MOTION":13.13468136,"ECCENTRICITY":0.0002306,"INCLINATION":87.8988,"RA_OF_ASC_NODE":238.1035,"ARG_OF_PERICENTER":93.8278,"MEAN_ANOMALY":266.3115,"EPHEMERIS_TYPE":0,"CLASSIFICATION_TYPE":"U","NORAD_CAT_ID":48054,"ELEMENT_SET_NO":999,"REV_AT_EPOCH":7001,"BSTAR":-0.00075745,"MEAN_MOTION_DOT":-2.64e-6,"MEAN_MOTION_DDOT":0},{"OBJECT_NAME":"ONEWEB-0157","OBJECT_ID":"2021-025P","EPOCH":"2022-08-18T10:57:41.110848","MEAN_MOTION":13.13471741,"ECCENTRICITY":0.0001709,"INCLINATION":87.896,"RA_OF_ASC_NODE":238.0408,"ARG_OF_PERICENTER":85.1285,"MEAN_ANOMALY":275.0039,"EPHEMERIS_TYPE":0,"CLASSIFICATION_TYPE":"U","NORAD_CAT_ID":48055,"ELEMENT_SET_NO":999,"REV_AT_EPOCH":6996,"BSTAR":0.00012734,"MEAN_MOTION_DOT":5.9e-7,"MEAN_MOTION_DDOT":0},{"OBJECT_NAME":"ONEWEB-0162","OBJECT_ID":"2021-025Q","EPOCH":"2022-08-18T11:52:31.916640","MEAN_MOTION":13.13468794,"ECCENTRICITY":0.0001908,"INCLINATION":87.9041,"RA_OF_ASC_NODE":238.0227,"ARG_OF_PERICENTER":93.1119,"MEAN_ANOMALY":267.0229,"EPHEMERIS_TYPE":0,"CLASSIFICATION_TYPE":"U","NORAD_CAT_ID":48056,"ELEMENT_SET_NO":999,"REV_AT_EPOCH":6993,"BSTAR":-8.0045e-5,"MEAN_MOTION_DOT":-1.6e-7,"MEAN_MOTION_DDOT":0},{"OBJECT_NAME":"ONEWEB-0155","OBJECT_ID":"2021-025R","EPOCH":"2022-08-19T01:12:39.458880","MEAN_MOTION":13.13468978,"ECCENTRICITY":0.0002138,"INCLINATION":87.8949,"RA_OF_ASC_NODE":237.8806,"ARG_OF_PERICENTER":85.6008,"MEAN_ANOMALY":274.5366,"EPHEMERIS_TYPE":0,"CLASSIFICATION_TYPE":"U","NORAD_CAT_ID":48057,"ELEMENT_SET_NO":999,"REV_AT_EPOCH":7015,"BSTAR":-0.0008476,"MEAN_MOTION_DOT":-2.97e-6,"MEAN_MOTION_DDOT":0},{"OBJECT_NAME":"ONEWEB-0149","OBJECT_ID":"2021-025S","EPOCH":"2022-08-18T11:04:07.814784","MEAN_MOTION":13.13471422,"ECCENTRICITY":0.0001652,"INCLINATION":87.8983,"RA_OF_ASC_NODE":238.0583,"ARG_OF_PERICENTER":103.8184,"MEAN_ANOMALY":256.3129,"EPHEMERIS_TYPE":0,"CLASSIFICATION_TYPE":"U","NORAD_CAT_ID":48058,"ELEMENT_SET_NO":999,"REV_AT_EPOCH":6987,"BSTAR":0.00043578,"MEAN_MOTION_DOT":1.72e-6,"MEAN_MOTION_DDOT":0},{"OBJECT_NAME":"ONEWEB-0148","OBJECT_ID":"2021-025T","EPOCH":"2022-08-18T10:12:29.860704","MEAN_MOTION":13.13469783,"ECCENTRICITY":0.0001109,"INCLINATION":87.9015,"RA_OF_ASC_NODE":238.0561,"ARG_OF_PERICENTER":99.1282,"MEAN_ANOMALY":260.9973,"EPHEMERIS_TYPE":0,"CLASSIFICATION_TYPE":"U","NORAD_CAT_ID":48059,"ELEMENT_SET_NO":999,"REV_AT_EPOCH":6999,"BSTAR":-0.00041647,"MEAN_MOTION_DOT":-1.39e-6,"MEAN_MOTION_DDOT":0},{"OBJECT_NAME":"ONEWEB-0160","OBJECT_ID":"2021-025U","EPOCH":"2022-08-18T10:38:19.036896","MEAN_MOTION":13.13471201,"ECCENTRICITY":0.0003212,"INCLINATION":87.9015,"RA_OF_ASC_NODE":238.0488,"ARG_OF_PERICENTER":102.2389,"MEAN_ANOMALY":257.91,"EPHEMERIS_TYPE":0,"CLASSIFICATION_TYPE":"U","NORAD_CAT_ID":48060,"ELEMENT_SET_NO":999,"REV_AT_EPOCH":6994,"BSTAR":-0.00052064,"MEAN_MOTION_DOT":-1.77e-6,"MEAN_MOTION_DDOT":0},{"OBJECT_NAME":"ONEWEB-0163","OBJECT_ID":"2021-025V","EPOCH":"2022-08-18T10:15:44.158752","MEAN_MOTION":13.13468832,"ECCENTRICITY":0.0001618,"INCLINATION":87.9002,"RA_OF_ASC_NODE":238.1467,"ARG_OF_PERICENTER":74.778,"MEAN_ANOMALY":285.3528,"EPHEMERIS_TYPE":0,"CLASSIFICATION_TYPE":"U","NORAD_CAT_ID":48061,"ELEMENT_SET_NO":999,"REV_AT_EPOCH":7006,"BSTAR":-0.00069495,"MEAN_MOTION_DOT":-2.41e-6,"MEAN_MOTION_DDOT":0},{"OBJECT_NAME":"ONEWEB-0159","OBJECT_ID":"2021-025W","EPOCH":"2022-08-18T11:49:16.777920","MEAN_MOTION":13.1347062,"ECCENTRICITY":0.0001535,"INCLINATION":87.9052,"RA_OF_ASC_NODE":238.0667,"ARG_OF_PERICENTER":81.5452,"MEAN_ANOMALY":278.5851,"EPHEMERIS_TYPE":0,"CLASSIFICATION_TYPE":"U","NORAD_CAT_ID":48062,"ELEMENT_SET_NO":999,"REV_AT_EPOCH":6999,"BSTAR":1.3522e-5,"MEAN_MOTION_DOT":1.8e-7,"MEAN_MOTION_DDOT":0},{"OBJECT_NAME":"ONEWEB-0164","OBJECT_ID":"2021-025X","EPOCH":"2022-08-18T22:21:39.960000","MEAN_MOTION":13.1347133,"ECCENTRICITY":0.0002309,"INCLINATION":87.901,"RA_OF_ASC_NODE":238.0687,"ARG_OF_PERICENTER":82.1701,"MEAN_ANOMALY":277.9691,"EPHEMERIS_TYPE":0,"CLASSIFICATION_TYPE":"U","NORAD_CAT_ID":48063,"ELEMENT_SET_NO":999,"REV_AT_EPOCH":7003,"BSTAR":0.00073091,"MEAN_MOTION_DOT":2.8e-6,"MEAN_MOTION_DDOT":0},{"OBJECT_NAME":"ONEWEB-0167","OBJECT_ID":"2021-025Y","EPOCH":"2022-08-18T10:18:57.570336","MEAN_MOTION":13.13470989,"ECCENTRICITY":0.000171,"INCLINATION":87.8965,"RA_OF_ASC_NODE":238.0466,"ARG_OF_PERICENTER":84.1796,"MEAN_ANOMALY":275.9528,"EPHEMERIS_TYPE":0,"CLASSIFICATION_TYPE":"U","NORAD_CAT_ID":48064,"ELEMENT_SET_NO":999,"REV_AT_EPOCH":6995,"BSTAR":-0.00070493,"MEAN_MOTION_DOT":-2.45e-6,"MEAN_MOTION_DDOT":0},{"OBJECT_NAME":"ONEWEB-0166","OBJECT_ID":"2021-025Z","EPOCH":"2022-08-19T01:25:34.013280","MEAN_MOTION":13.13471521,"ECCENTRICITY":0.00018,"INCLINATION":87.9033,"RA_OF_ASC_NODE":237.8949,"ARG_OF_PERICENTER":84.8975,"MEAN_ANOMALY":275.236,"EPHEMERIS_TYPE":0,"CLASSIFICATION_TYPE":"U","NORAD_CAT_ID":48065,"ELEMENT_SET_NO":999,"REV_AT_EPOCH":7011,"BSTAR":-0.00063915,"MEAN_MOTION_DOT":-2.21e-6,"MEAN_MOTION_DDOT":0},{"OBJECT_NAME":"ONEWEB-0151","OBJECT_ID":"2021-025AA","EPOCH":"2022-08-18T10:51:12.989088","MEAN_MOTION":13.13472421,"ECCENTRICITY":0.0002328,"INCLINATION":87.8972,"RA_OF_ASC_NODE":238.0657,"ARG_OF_PERICENTER":80.412,"MEAN_ANOMALY":279.7272,"EPHEMERIS_TYPE":0,"CLASSIFICATION_TYPE":"U","NORAD_CAT_ID":48066,"ELEMENT_SET_NO":999,"REV_AT_EPOCH":6998,"BSTAR":-7.3882e-5,"MEAN_MOTION_DOT":-1.4e-7,"MEAN_MOTION_DDOT":0},{"OBJECT_NAME":"ONEWEB-0170","OBJECT_ID":"2021-025AB","EPOCH":"2022-08-18T11:00:53.995392","MEAN_MOTION":13.13471291,"ECCENTRICITY":0.0003032,"INCLINATION":87.9004,"RA_OF_ASC_NODE":238.1499,"ARG_OF_PERICENTER":85.2736,"MEAN_ANOMALY":274.8739,"EPHEMERIS_TYPE":0,"CLASSIFICATION_TYPE":"U","NORAD_CAT_ID":48067,"ELEMENT_SET_NO":999,"REV_AT_EPOCH":6993,"BSTAR":0.00037777,"MEAN_MOTION_DOT":1.51e-6,"MEAN_MOTION_DDOT":0}]