ONEWEB-0112             
1 48051U 21025K   22231.09751039 -.00000486  00000+0 -13667-2 0  9996
2 48051  87.9044 237.8896 0001623  57.3437 302.7848 13.13463614 70074
ONEWEB-0156             
1 48052U 21025L   22230.49704572 -.00000105  00000+0 -32210-3 0  9994
2 48052  87.8994 238.0814 0001957  90.4002 269.7351 13.13471098 69970
ONEWEB-0161             
1 48053U 21025M   22230.47015560  .00000314  00000+0  82588-3 0  9998
2 48053  87.9036 238.0515 0001987  83.4251 276.7105 13.13471024 69893
ONEWEB-0158             
1 48054U 21025N   22230.43431426 -.00000264  00000+0 -75745-3 0  9991
2 48054  87.8988 238.1035 0002306  93.8278 266.3115 13.13468136 70019
ONEWEB-0157             
1 48055U 21025P   22230.45672582  .00000059  00000+0  12734-3 0  9993
2 48055  87.8960 238.0408 0001709  85.1285 275.0039 13.13471741 69961
ONEWEB-0162             
1 48056U 21025Q   22230.49481385 -.00000016  00000+0 -80045-4 0  9993
2 48056  87.9041 238.0227 0001908  93.1119 267.0229 13.13468794 69931
ONEWEB-0155             
1 48057U 21025R   22231.05045670 -.00000297  00000+0 -84760-3 0  9998
2 48057  87.8949 237.8806 0002138  85.6008 274.5366 13.13468978 70152
ONEWEB-0149             
1 48058U 21025S   22230.46120156  .00000172  00000+0  43578-3 0  9998
2 48058  87.8983 238.0583 0001652 103.8184 256.3129 13.13471422 69874
ONEWEB-0148             
1 48059U 21025T   22230.42534561 -.00000139  00000+0 -41647-3 0  9994
2 48059  87.9015 238.0561 0001109  99.1282 260.9973 13.13469783 69999
ONEWEB-0160             
1 48060U 21025U   22230.44327589 -.00000177  00000+0 -52064-3 0  9995
2 48060  87.9015 238.0488 0003212 102.2389 257.9100 13.13471201 69941
ONEWEB-0163             
1 48061U 21025V   22230.42759443 -.00000241  00000+0 -69495-3 0  9990
2 48061  87.9002 238.1467 0001618  74.7780 285.3528 13.13468832 70062
ONEWEB-0159             
1 48062U 21025W   22230.49255530  .00000018  00000+0  13522-4 0  9997
2 48062  87.9052 238.0667 0001535  81.5452 278.5851 13.13470620 69990
ONEWEB-0164             
1 48063U 21025X   22230.93171250  .00000280  00000+0  73091-3 0  9990
2 48063  87.9010 238.0687 0002309  82.1701 277.9691 13.13471330 70032
ONEWEB-0167             
1 48064U 21025Y   22230.42983299 -.00000245  00000+0 -70493-3 0  9995
2 48064  87.8965 238.0466 0001710  84.1796 275.9528 13.13470989 69952
ONEWEB-0166             
1 48065U 21025Z   22231.05942145 -.00000221  00000+0 -63915-3 0  9996
2 48065  87.9033 237.8949 0001800  84.8975 275.2360 13.13471521 70119
ONEWEB-0151             
1 48066U 21025AA  22230.45223367 -.00000014  00000+0 -73882-4 0  9993
2 48066  87.8972 238.0657 0002328  80.4120 279.7272 13.13472421 69984
ONEWEB-0170             
1 48067U 21025AB  22230.45895828  .00000151  00000+0  37777-3 0  9993
2 48067  87.9004 238.1499 0003032  85.2736 274.8739 13.13471291 69939
